{"type":"FeatureCollection","crs":{"type":"name","properties":{"name":"urn:ogc:def:crs:OGC:1.3:CRS84"}},"features":[{"type":"Feature","properties":{"name":"Cross River"},"geometry":{"type":"Polygon","coordinates":[[[8.274,4.855],[8.659,4.944],[9.256,6.718],[8.305,6.651],[8.264,5.997],[7.972,5.399],[8.274,4.855]]]}},{"type":"Feature","properties":{"name":"FCT Abuja"},"geometry":{"type":"Polygon","coordinates":[[[6.981,8.444],[7.27,8.464],[7.502,8.669],[7.667,9.401],[7.359,9.309],[6.79,8.79],[6.981,8.444]]]}},{"type":"Feature","properties":{"name":"Ogun"},"geometry":{"type":"Polygon","coordinates":[[[4.483,6.326],[4.522,7.025],[3.446,7.494],[2.982,7.807],[2.728,6.624],[3.378,6.639],[4.483,6.326]]]}},{"type":"Feature","properties":{"name":"Oyo"},"geometry":{"type":"Polygon","coordinates":[[[4.088,7.133],[4.099,7.864],[4.221,8.861],[2.749,7.887],[3.016,7.736],[3.399,7.444],[4.088,7.133]]]}},{"type":"Feature","properties":{"name":"Sokoto"},"geometry":{"type":"Polygon","coordinates":[[[4.126,13.25],[4.681,12.397],[4.586,11.655],[4.941,11.731],[5.588,12.804],[6.574,13.025],[4.126,13.25]]]}},{"type":"Feature","properties":{"name":"Zamfara"},"geometry":{"type":"Polygon","coordinates":[[[4.941,11.731],[5.405,11.703],[6.283,10.968],[6.901,11.459],[7.133,12.09],[6.362,13.144],[4.941,11.731]]]}},{"type":"Feature","properties":{"name":"Lagos"},"geometry":{"type":"Polygon","coordinates":[[[2.705,6.46],[4.259,6.379],[4.214,6.599],[3.912,6.681],[3.258,6.697],[3.06,6.502],[2.705,6.46]]]}},{"type":"Feature","properties":{"name":"Akwa Ibom"},"geometry":{"type":"Polygon","coordinates":[[[7.88,5.367],[7.622,5.388],[7.529,5.058],[7.535,4.7],[8.335,4.59],[8.067,5.182],[7.88,5.367]]]}},{"type":"Feature","properties":{"name":"Bayelsa"},"geometry":{"type":"Polygon","coordinates":[[[5.448,5.134],[6.247,4.359],[6.547,4.682],[6.535,5.187],[6.202,5.179],[5.817,5.077],[5.448,5.134]]]}},{"type":"Feature","properties":{"name":"Ondo"},"geometry":{"type":"Polygon","coordinates":[[[4.483,6.326],[5.11,6.414],[5.714,6.757],[5.971,7.46],[5.294,7.437],[4.377,6.645],[4.483,6.326]]]}},{"type":"Feature","properties":{"name":"Delta"},"geometry":{"type":"Polygon","coordinates":[[[6.485,5.379],[6.35,6.379],[5.537,5.99],[5.164,6.146],[5.556,5.519],[5.82,5.075],[6.485,5.379]]]}},{"type":"Feature","properties":{"name":"Rivers"},"geometry":{"type":"Polygon","coordinates":[[[7.495,4.828],[7.06,5.24],[6.531,5.285],[6.546,4.581],[6.763,4.346],[7.144,4.665],[7.495,4.828]]]}},{"type":"Feature","properties":{"name":"Kwara"},"geometry":{"type":"Polygon","coordinates":[[[4.569,8.055],[5.332,8.01],[5.849,8.422],[4.997,9.207],[3.941,9.977],[2.743,8.771],[4.569,8.055]]]}},{"type":"Feature","properties":{"name":"Kogi"},"geometry":{"type":"Polygon","coordinates":[[[6.828,8.458],[5.6,8.489],[5.645,7.963],[6.238,7.476],[6.952,6.828],[7.797,7.376],[6.828,8.458]]]}},{"type":"Feature","properties":{"name":"Benue"},"geometry":{"type":"Polygon","coordinates":[[[9.467,6.401],[8.911,8.056],[7.724,7.62],[7.719,6.872],[8.153,6.755],[8.848,6.866],[9.467,6.401]]]}},{"type":"Feature","properties":{"name":"Borno"},"geometry":{"type":"Polygon","coordinates":[[[11.836,10.034],[13.641,10.946],[14.516,12.305],[13.243,13.616],[12.673,13.275],[12.121,11.14],[11.836,10.034]]]}},{"type":"Feature","properties":{"name":"Katsina"},"geometry":{"type":"Polygon","coordinates":[[[6.889,11.384],[7.708,11.316],[7.88,12.044],[8.204,12.622],[8.409,13.088],[7.18,12.008],[6.889,11.384]]]}},{"type":"Feature","properties":{"name":"Plateau"},"geometry":{"type":"Polygon","coordinates":[[[9.617,8.372],[10.6,9.201],[9.764,9.54],[9.007,10.033],[8.574,9.514],[8.924,8.782],[9.617,8.372]]]}},{"type":"Feature","properties":{"name":"Edo"},"geometry":{"type":"Polygon","coordinates":[[[5.134,6.169],[5.523,6.013],[6.358,6.384],[6.209,7.45],[5.868,7.141],[5.147,6.57],[5.134,6.169]]]}},{"type":"Feature","properties":{"name":"Jigawa"},"geometry":{"type":"Polygon","coordinates":[[[8.246,12.594],[9.189,11.713],[9.881,10.989],[9.631,11.739],[10.175,12.046],[10.305,12.861],[8.246,12.594]]]}},{"type":"Feature","properties":{"name":"Anambra"},"geometry":{"type":"Polygon","coordinates":[[[6.602,5.687],[7.026,5.91],[7.309,6.079],[7.142,6.38],[7.017,6.706],[6.743,6.209],[6.602,5.687]]]}},{"type":"Feature","properties":{"name":"Kano"},"geometry":{"type":"Polygon","coordinates":[[[7.751,11.371],[8.298,11.234],[8.794,11.061],[9.234,11.663],[8.733,12.423],[7.871,12.22],[7.751,11.371]]]}},{"type":"Feature","properties":{"name":"Nasarawa"},"geometry":{"type":"Polygon","coordinates":[[[6.981,8.444],[8.403,7.766],[9.342,8.284],[9.07,8.488],[9.067,8.966],[8.499,9.011],[6.981,8.444]]]}},{"type":"Feature","properties":{"name":"Kebbi"},"geometry":{"type":"Polygon","coordinates":[[[4.126,13.25],[4.71,10.852],[5.055,10.904],[5.537,10.961],[5.318,11.778],[4.669,11.675],[4.126,13.25]]]}},{"type":"Feature","properties":{"name":"Imo"},"geometry":{"type":"Polygon","coordinates":[[[7.264,5.216],[7.423,5.584],[7.392,5.912],[7.009,5.908],[6.691,5.7],[6.929,5.226],[7.264,5.216]]]}},{"type":"Feature","properties":{"name":"Gombe"},"geometry":{"type":"Polygon","coordinates":[[[11.583,10.594],[11.092,11.226],[10.57,10.587],[10.945,9.87],[11.567,9.611],[11.64,10.203],[11.583,10.594]]]}},{"type":"Feature","properties":{"name":"Adamawa"},"geometry":{"type":"Polygon","coordinates":[[[11.836,10.034],[11.735,9.053],[11.514,7.816],[12.441,8.455],[13.502,10.911],[12.603,10.478],[11.836,10.034]]]}},{"type":"Feature","properties":{"name":"Yobe"},"geometry":{"type":"Polygon","coordinates":[[[12.43,13.073],[9.787,12.814],[10.587,12.664],[10.936,11.481],[11.677,10.877],[12.267,11.418],[12.43,13.073]]]}},{"type":"Feature","properties":{"name":"Abia"},"geometry":{"type":"Polygon","coordinates":[[[7.89,5.685],[7.261,5.939],[7.354,5.445],[7.331,4.873],[7.533,5.116],[7.692,5.512],[7.89,5.685]]]}},{"type":"Feature","properties":{"name":"Ekiti"},"geometry":{"type":"Polygon","coordinates":[[[5.773,7.747],[5.667,8.009],[5.359,8.063],[4.95,7.903],[4.987,7.419],[5.413,7.29],[5.773,7.747]]]}},{"type":"Feature","properties":{"name":"Osun"},"geometry":{"type":"Polygon","coordinates":[[[4.61,7.031],[4.888,7.692],[4.854,8.096],[4.39,7.879],[4.122,7.61],[4.081,7.14],[4.61,7.031]]]}},{"type":"Feature","properties":{"name":"Bauchi"},"geometry":{"type":"Polygon","coordinates":[[[10.541,9.484],[10.819,11.97],[10.067,11.985],[10.13,11.238],[9.351,11.343],[8.931,10.245],[10.541,9.484]]]}},{"type":"Feature","properties":{"name":"Niger"},"geometry":{"type":"Polygon","coordinates":[[[7.379,9.336],[6.447,10.594],[5.855,11.099],[4.861,11.103],[4.699,10.798],[4.153,9.862],[7.379,9.336]]]}},{"type":"Feature","properties":{"name":"Kaduna"},"geometry":{"type":"Polygon","coordinates":[[[7.724,9.329],[8.755,10.439],[8.073,11.505],[7.119,11.156],[6.165,10.893],[6.731,10.596],[7.724,9.329]]]}},{"type":"Feature","properties":{"name":"Enugu"},"geometry":{"type":"Polygon","coordinates":[[[6.861,6.753],[7.071,6.429],[7.309,6.079],[7.708,6.298],[7.738,6.87],[7.215,6.915],[6.861,6.753]]]}},{"type":"Feature","properties":{"name":"Taraba"},"geometry":{"type":"Polygon","coordinates":[[[9.598,6.5],[11.511,6.602],[11.372,8.071],[11.593,9.304],[10.633,9.111],[9.518,8.302],[9.598,6.5]]]}},{"type":"Feature","properties":{"name":"Ebonyi"},"geometry":{"type":"Polygon","coordinates":[[[8.295,6.679],[7.954,6.552],[7.573,5.969],[7.932,5.822],[8.223,6.014],[8.439,6.447],[8.295,6.679]]]}}]}